start=new Date('2022-09-06T00:00:00.000Z').valueOf();
sats=[{"REV_AT_EPOCH":"130","PERIOD":"95.921","MEAN_ANOMALY":"355.9977","NORAD_CAT_ID":"53049","OBJECT_NAME":"STARLINK-4345","OBJECT_ID":"2022-077G","REF_FRAME":"TEME","EPHEMERIS_TYPE":"0","SEMIMAJOR_AXIS":"6941.235","DECAY_DATE":null,"TLE_LINE1":"1 53049U 22077G   22248.91667824  .00069359  00000-0  53556-2 0  9998","RA_OF_ASC_NODE":"69.0548","LAUNCH_DATE":"2022-07-11","TIME_SYSTEM":"UTC","CENTER_NAME":"EARTH","GP_ID":"211836395","ARG_OF_PERICENTER":"68.4026","PERIAPSIS":"561.498","FILE":"3559723","ELEMENT_SET_NO":"999","EPOCH":"2022-09-05T22:00:00.999936","SITE":"AFWTR","CLASSIFICATION_TYPE":"U","RCS_SIZE":"LARGE","MEAN_ELEMENT_THEORY":"SGP4","COUNTRY_CODE":"US","MEAN_MOTION_DOT":"0.00069359","MEAN_MOTION_DDOT":"0.0000000000000","APOAPSIS":"564.702","MEAN_MOTION":"15.01231459","ECCENTRICITY":"0.00023080","TLE_LINE2":"2 53049  97.6599  69.0548 0002308  68.4026 355.9977 15.01231459  1309","BSTAR":"0.00535560000000","OBJECT_TYPE":"PAYLOAD","INCLINATION":"97.6599"},{"SITE":"AFWTR","ELEMENT_SET_NO":"999","EPOCH":"2022-09-05T22:00:00.999936","FILE":"3559723","PERIAPSIS":"561.721","ARG_OF_PERICENTER":"76.7900","OBJECT_TYPE":"PAYLOAD","INCLINATION":"97.6594","TLE_LINE2":"2 53050  97.6594  69.0558 0001956  76.7900 328.9840 15.01238306  1305","BSTAR":"0.00533330000000","ECCENTRICITY":"0.00019560","APOAPSIS":"564.436","MEAN_MOTION":"15.01238306","MEAN_MOTION_DOT":"0.00069079","MEAN_MOTION_DDOT":"0.0000000000000","COUNTRY_CODE":"US","RCS_SIZE":"LARGE","CLASSIFICATION_TYPE":"U","MEAN_ELEMENT_THEORY":"SGP4","NORAD_CAT_ID":"53050","MEAN_ANOMALY":"328.9840","PERIOD":"95.921","REV_AT_EPOCH":"130","CENTER_NAME":"EARTH","GP_ID":"211837279","LAUNCH_DATE":"2022-07-11","TIME_SYSTEM":"UTC","TLE_LINE1":"1 53050U 22077H   22248.91667824  .00069079  00000-0  53333-2 0  9992","RA_OF_ASC_NODE":"69.0558","DECAY_DATE":null,"SEMIMAJOR_AXIS":"6941.214","REF_FRAME":"TEME","OBJECT_ID":"2022-077H","EPHEMERIS_TYPE":"0","OBJECT_NAME":"STARLINK-4343"},{"PERIOD":"95.921","MEAN_ANOMALY":"0.1054","NORAD_CAT_ID":"53051","REV_AT_EPOCH":"130","DECAY_DATE":null,"TLE_LINE1":"1 53051U 22077J   22248.91667824  .00069709  00000-0  53820-2 0  9994","RA_OF_ASC_NODE":"69.0554","TIME_SYSTEM":"UTC","LAUNCH_DATE":"2022-07-11","CENTER_NAME":"EARTH","GP_ID":"211836954","OBJECT_NAME":"STARLINK-4336","OBJECT_ID":"2022-077J","REF_FRAME":"TEME","EPHEMERIS_TYPE":"0","SEMIMAJOR_AXIS":"6941.227","PERIAPSIS":"561.644","FILE":"3559723","EPOCH":"2022-09-05T22:00:00.999936","ELEMENT_SET_NO":"999","SITE":"AFWTR","ARG_OF_PERICENTER":"75.5931","TLE_LINE2":"2 53051  97.6596  69.0554 0002086  75.5931   0.1054 15.01234107  1301","BSTAR":"0.00538200000000","OBJECT_TYPE":"PAYLOAD","INCLINATION":"97.6596","CLASSIFICATION_TYPE":"U","RCS_SIZE":"LARGE","MEAN_ELEMENT_THEORY":"SGP4","COUNTRY_CODE":"US","MEAN_MOTION_DOT":"0.00069709","MEAN_MOTION_DDOT":"0.0000000000000","MEAN_MOTION":"15.01234107","APOAPSIS":"564.540","ECCENTRICITY":"0.00020860"},{"OBJECT_NAME":"STARLINK-4341","SEMIMAJOR_AXIS":"6941.241","EPHEMERIS_TYPE":"0","OBJECT_ID":"2022-077K","REF_FRAME":"TEME","RA_OF_ASC_NODE":"69.0542","TLE_LINE1":"1 53052U 22077K   22248.91667824  .00069461  00000-0  53637-2 0  9996","DECAY_DATE":null,"GP_ID":"211836248","CENTER_NAME":"EARTH","TIME_SYSTEM":"UTC","LAUNCH_DATE":"2022-07-11","REV_AT_EPOCH":"130","MEAN_ANOMALY":"342.9307","PERIOD":"95.921","NORAD_CAT_ID":"53052","COUNTRY_CODE":"US","MEAN_ELEMENT_THEORY":"SGP4","RCS_SIZE":"LARGE","CLASSIFICATION_TYPE":"U","ECCENTRICITY":"0.00022140","APOAPSIS":"564.643","MEAN_MOTION":"15.01229391","MEAN_MOTION_DDOT":"0.0000000000000","MEAN_MOTION_DOT":"0.00069461","TLE_LINE2":"2 53052  97.6589  69.0542 0002214  72.8008 342.9307 15.01229391  1306","BSTAR":"0.00536370000000","INCLINATION":"97.6589","OBJECT_TYPE":"PAYLOAD","ARG_OF_PERICENTER":"72.8008","EPOCH":"2022-09-05T22:00:00.999936","ELEMENT_SET_NO":"999","PERIAPSIS":"561.569","FILE":"3559723","SITE":"AFWTR"},{"ARG_OF_PERICENTER":"74.9834","PERIAPSIS":"561.843","FILE":"3559723","EPOCH":"2022-09-05T22:00:00.999936","ELEMENT_SET_NO":"999","SITE":"AFWTR","CLASSIFICATION_TYPE":"U","RCS_SIZE":"LARGE","MEAN_ELEMENT_THEORY":"SGP4","COUNTRY_CODE":"US","MEAN_MOTION_DOT":"0.00070249","MEAN_MOTION_DDOT":"0.0000000000000","APOAPSIS":"564.408","ECCENTRICITY":"0.00018480","MEAN_MOTION":"15.01223142","TLE_LINE2":"2 53053  97.6586  69.0547 0001848  74.9834  20.8175 15.01223142  1304","BSTAR":"0.00542480000000","OBJECT_TYPE":"PAYLOAD","INCLINATION":"97.6586","REV_AT_EPOCH":"130","PERIOD":"95.922","MEAN_ANOMALY":"20.8175","NORAD_CAT_ID":"53053","OBJECT_NAME":"STARLINK-4337","REF_FRAME":"TEME","OBJECT_ID":"2022-077L","EPHEMERIS_TYPE":"0","SEMIMAJOR_AXIS":"6941.260","DECAY_DATE":null,"TLE_LINE1":"1 53053U 22077L   22248.91667824  .00070249  00000-0  54248-2 0  9992","RA_OF_ASC_NODE":"69.0547","TIME_SYSTEM":"UTC","LAUNCH_DATE":"2022-07-11","CENTER_NAME":"EARTH","GP_ID":"211836809"},{"ELEMENT_SET_NO":"999","EPOCH":"2022-09-05T22:00:00.999936","FILE":"3559723","PERIAPSIS":"561.409","SITE":"AFWTR","ARG_OF_PERICENTER":"72.0816","BSTAR":"0.00535740000000","TLE_LINE2":"2 53054  97.6582  69.0559 0002419  72.0816 353.6176 15.01235401  1307","OBJECT_TYPE":"PAYLOAD","INCLINATION":"97.6582","COUNTRY_CODE":"US","CLASSIFICATION_TYPE":"U","RCS_SIZE":"LARGE","MEAN_ELEMENT_THEORY":"SGP4","MEAN_MOTION":"15.01235401","APOAPSIS":"564.767","ECCENTRICITY":"0.00024190","MEAN_MOTION_DOT":"0.00069390","MEAN_MOTION_DDOT":"0.0000000000000","MEAN_ANOMALY":"353.6176","PERIOD":"95.921","NORAD_CAT_ID":"53054","REV_AT_EPOCH":"130","TLE_LINE1":"1 53054U 22077M   22248.91667824  .00069390  00000-0  53574-2 0  9999","RA_OF_ASC_NODE":"69.0559","DECAY_DATE":null,"CENTER_NAME":"EARTH","GP_ID":"211837104","TIME_SYSTEM":"UTC","LAUNCH_DATE":"2022-07-11","OBJECT_NAME":"STARLINK-4339","SEMIMAJOR_AXIS":"6941.223","OBJECT_ID":"2022-077M","REF_FRAME":"TEME","EPHEMERIS_TYPE":"0"},{"REV_AT_EPOCH":"130","MEAN_ANOMALY":"31.0802","PERIOD":"95.921","NORAD_CAT_ID":"53055","OBJECT_NAME":"STARLINK-4338","SEMIMAJOR_AXIS":"6941.246","REF_FRAME":"TEME","OBJECT_ID":"2022-077N","EPHEMERIS_TYPE":"0","TLE_LINE1":"1 53055U 22077N   22248.91667824  .00070457  00000-0  54400-2 0  9995","RA_OF_ASC_NODE":"69.0535","DECAY_DATE":null,"CENTER_NAME":"EARTH","GP_ID":"211836541","TIME_SYSTEM":"UTC","LAUNCH_DATE":"2022-07-11","ARG_OF_PERICENTER":"74.6399","EPOCH":"2022-09-05T22:00:00.999936","ELEMENT_SET_NO":"999","PERIAPSIS":"561.709","FILE":"3559723","SITE":"AFWTR","COUNTRY_CODE":"US","CLASSIFICATION_TYPE":"U","RCS_SIZE":"LARGE","MEAN_ELEMENT_THEORY":"SGP4","MEAN_MOTION":"15.01227856","APOAPSIS":"564.512","ECCENTRICITY":"0.00020190","MEAN_MOTION_DOT":"0.00070457","MEAN_MOTION_DDOT":"0.0000000000000","TLE_LINE2":"2 53055  97.6584  69.0535 0002019  74.6399  31.0802 15.01227856  1302","BSTAR":"0.00544000000000","OBJECT_TYPE":"PAYLOAD","INCLINATION":"97.6584"},{"OBJECT_NAME":"STARLINK-4314","OBJECT_ID":"2022-077P","REF_FRAME":"TEME","EPHEMERIS_TYPE":"0","SEMIMAJOR_AXIS":"6941.258","DECAY_DATE":null,"TLE_LINE1":"1 53056U 22077P   22248.91667824  .00070088  00000-0  54124-2 0  9999","RA_OF_ASC_NODE":"69.0559","TIME_SYSTEM":"UTC","LAUNCH_DATE":"2022-07-11","CENTER_NAME":"EARTH","GP_ID":"211836661","REV_AT_EPOCH":"130","PERIOD":"95.922","MEAN_ANOMALY":"5.7452","NORAD_CAT_ID":"53056","RCS_SIZE":"LARGE","CLASSIFICATION_TYPE":"U","MEAN_ELEMENT_THEORY":"SGP4","COUNTRY_CODE":"US","MEAN_MOTION_DOT":"0.00070088","MEAN_MOTION_DDOT":"0.0000000000000","APOAPSIS":"564.515","MEAN_MOTION":"15.01224062","ECCENTRICITY":"0.00020060","BSTAR":"0.00541240000000","TLE_LINE2":"2 53056  97.6595  69.0559 0002006  80.0564   5.7452 15.01224062  1307","OBJECT_TYPE":"PAYLOAD","INCLINATION":"97.6595","ARG_OF_PERICENTER":"80.0564","FILE":"3559723","PERIAPSIS":"561.730","ELEMENT_SET_NO":"999","EPOCH":"2022-09-05T22:00:00.999936","SITE":"AFWTR"},{"FILE":"3559723","PERIAPSIS":"561.822","EPOCH":"2022-09-05T22:00:00.999936","ELEMENT_SET_NO":"999","SITE":"AFWTR","ARG_OF_PERICENTER":"88.4400","TLE_LINE2":"2 53057  97.6577  69.0531 0001896  88.4400  37.3707 15.01219035  1303","BSTAR":"0.00549430000000","INCLINATION":"97.6577","OBJECT_TYPE":"PAYLOAD","MEAN_ELEMENT_THEORY":"SGP4","RCS_SIZE":"LARGE","CLASSIFICATION_TYPE":"U","COUNTRY_CODE":"US","MEAN_MOTION_DDOT":"0.0000000000000","MEAN_MOTION_DOT":"0.00071151","ECCENTRICITY":"0.00018960","APOAPSIS":"564.454","MEAN_MOTION":"15.01219035","PERIOD":"95.922","MEAN_ANOMALY":"37.3707","NORAD_CAT_ID":"53057","REV_AT_EPOCH":"130","DECAY_DATE":null,"RA_OF_ASC_NODE":"69.0531","TLE_LINE1":"1 53057U 22077Q   22248.91667824  .00071151  00000-0  54943-2 0  9991","LAUNCH_DATE":"2022-07-11","TIME_SYSTEM":"UTC","GP_ID":"211836396","CENTER_NAME":"EARTH","OBJECT_NAME":"STARLINK-4252","EPHEMERIS_TYPE":"0","OBJECT_ID":"2022-077Q","REF_FRAME":"TEME","SEMIMAJOR_AXIS":"6941.273"},{"REV_AT_EPOCH":"130","NORAD_CAT_ID":"53058","PERIOD":"95.922","MEAN_ANOMALY":"41.1966","EPHEMERIS_TYPE":"0","OBJECT_ID":"2022-077R","REF_FRAME":"TEME","SEMIMAJOR_AXIS":"6941.272","OBJECT_NAME":"STARLINK-4317","LAUNCH_DATE":"2022-07-11","TIME_SYSTEM":"UTC","GP_ID":"211837280","CENTER_NAME":"EARTH","DECAY_DATE":null,"RA_OF_ASC_NODE":"69.0540","TLE_LINE1":"1 53058U 22077R   22248.91667824  .00070727  00000-0  54619-2 0  9990","ARG_OF_PERICENTER":"63.2656","SITE":"AFWTR","PERIAPSIS":"561.893","FILE":"3559723","ELEMENT_SET_NO":"999","EPOCH":"2022-09-05T22:00:00.999936","MEAN_MOTION_DDOT":"0.0000000000000","MEAN_MOTION_DOT":"0.00070727","APOAPSIS":"564.381","ECCENTRICITY":"0.00017920","MEAN_MOTION":"15.01219346","MEAN_ELEMENT_THEORY":"SGP4","CLASSIFICATION_TYPE":"U","RCS_SIZE":"LARGE","COUNTRY_CODE":"US","INCLINATION":"97.6584","OBJECT_TYPE":"PAYLOAD","BSTAR":"0.00546190000000","TLE_LINE2":"2 53058  97.6584  69.0540 0001792  63.2656  41.1966 15.01219346  1306"}];
